start=new Date('2022-02-16T00:00:00.000Z').valueOf();
sats=[{"MEAN_MOTION_DOT":"0.00004411","EPHEMERIS_TYPE":"0","REF_FRAME":"TEME","TIME_SYSTEM":"UTC","OBJECT_TYPE":"PAYLOAD","GP_ID":"196058850","APOAPSIS":"548.362","CENTER_NAME":"EARTH","OBJECT_ID":"2021-021F","REV_AT_EPOCH":"5276","RA_OF_ASC_NODE":"89.4776","TLE_LINE1":"1 47865U 21021F   22046.59493361  .00004411  00000-0  31472-3 0  9990","TLE_LINE2":"2 47865  53.0542  89.4776 0001716  59.6526 300.4633 15.06413078 52764","NORAD_CAT_ID":"47865","RCS_SIZE":"LARGE","PERIAPSIS":"545.985","SITE":"AFETR","CLASSIFICATION_TYPE":"U","FILE":"3301463","ELEMENT_SET_NO":"999","MEAN_MOTION":"15.06413078","OBJECT_NAME":"STARLINK-2310","BSTAR":"0.00031472000000","MEAN_MOTION_DDOT":"0.0000000000000","ARG_OF_PERICENTER":"59.6526","EPOCH":"2022-02-15T14:16:42.263904","MEAN_ANOMALY":"300.4633","LAUNCH_DATE":"2021-03-14","MEAN_ELEMENT_THEORY":"SGP4","SEMIMAJOR_AXIS":"6925.308","COUNTRY_CODE":"US","INCLINATION":"53.0542","ECCENTRICITY":"0.00017160","DECAY_DATE":null,"PERIOD":"95.591"},{"BSTAR":"-0.00027687000000","OBJECT_NAME":"STARLINK-2320","MEAN_MOTION":"15.06390878","ELEMENT_SET_NO":"999","FILE":"3301463","CLASSIFICATION_TYPE":"U","SITE":"AFETR","PERIAPSIS":"546.155","ECCENTRICITY":"0.00015690","DECAY_DATE":null,"PERIOD":"95.593","COUNTRY_CODE":"US","INCLINATION":"53.0546","SEMIMAJOR_AXIS":"6925.377","MEAN_ELEMENT_THEORY":"SGP4","MEAN_ANOMALY":"305.2987","LAUNCH_DATE":"2021-03-14","EPOCH":"2022-02-15T14:22:00.464736","ARG_OF_PERICENTER":"54.8149","MEAN_MOTION_DDOT":"0.0000000000000","REV_AT_EPOCH":"5281","OBJECT_ID":"2021-021G","GP_ID":"196059601","APOAPSIS":"548.328","CENTER_NAME":"EARTH","OBJECT_TYPE":"PAYLOAD","TIME_SYSTEM":"UTC","REF_FRAME":"TEME","EPHEMERIS_TYPE":"0","MEAN_MOTION_DOT":"-0.00004402","RCS_SIZE":"LARGE","NORAD_CAT_ID":"47866","TLE_LINE2":"2 47866  53.0546  89.4773 0001569  54.8149 305.2987 15.06390878 52813","TLE_LINE1":"1 47866U 21021G   22046.59861649 -.00004402  00000-0 -27687-3 0  9994","RA_OF_ASC_NODE":"89.4773"},{"REF_FRAME":"TEME","EPHEMERIS_TYPE":"0","MEAN_MOTION_DOT":"-0.00002585","REV_AT_EPOCH":"5278","OBJECT_ID":"2021-021H","CENTER_NAME":"EARTH","GP_ID":"196059852","APOAPSIS":"548.256","OBJECT_TYPE":"PAYLOAD","TIME_SYSTEM":"UTC","NORAD_CAT_ID":"47867","TLE_LINE2":"2 47867  53.0543  78.5998 0001432  66.3284 293.7855 15.06383556 52782","RA_OF_ASC_NODE":"78.5998","TLE_LINE1":"1 47867U 21021H   22046.79121512 -.00002585  00000-0 -15476-3 0  9998","RCS_SIZE":"LARGE","FILE":"3301463","CLASSIFICATION_TYPE":"U","SITE":"AFETR","PERIAPSIS":"546.272","BSTAR":"-0.00015476000000","OBJECT_NAME":"STARLINK-2321","MEAN_MOTION":"15.06383556","ELEMENT_SET_NO":"999","MEAN_ELEMENT_THEORY":"SGP4","LAUNCH_DATE":"2021-03-14","MEAN_ANOMALY":"293.7855","EPOCH":"2022-02-15T18:59:20.986368","ARG_OF_PERICENTER":"66.3284","MEAN_MOTION_DDOT":"0.0000000000000","ECCENTRICITY":"0.00014320","DECAY_DATE":null,"PERIOD":"95.593","INCLINATION":"53.0543","COUNTRY_CODE":"US","SEMIMAJOR_AXIS":"6925.399"},{"RCS_SIZE":"LARGE","NORAD_CAT_ID":"47868","TLE_LINE2":"2 47868  53.0558  28.6254 0001673  77.2665 282.8511 15.06400980 53534","RA_OF_ASC_NODE":"28.6254","TLE_LINE1":"1 47868U 21021J   22046.78476197  .00001822  00000-0  14118-3 0  9993","REV_AT_EPOCH":"5353","OBJECT_ID":"2021-021J","GP_ID":"196058099","APOAPSIS":"548.369","CENTER_NAME":"EARTH","OBJECT_TYPE":"PAYLOAD","TIME_SYSTEM":"UTC","REF_FRAME":"TEME","EPHEMERIS_TYPE":"0","MEAN_MOTION_DOT":"0.00001822","ECCENTRICITY":"0.00016730","DECAY_DATE":null,"PERIOD":"95.592","INCLINATION":"53.0558","COUNTRY_CODE":"US","SEMIMAJOR_AXIS":"6925.346","MEAN_ELEMENT_THEORY":"SGP4","MEAN_ANOMALY":"282.8511","LAUNCH_DATE":"2021-03-14","EPOCH":"2022-02-15T18:50:03.434208","ARG_OF_PERICENTER":"77.2665","MEAN_MOTION_DDOT":"0.0000000000000","BSTAR":"0.00014118000000","OBJECT_NAME":"STARLINK-2323","MEAN_MOTION":"15.06400980","ELEMENT_SET_NO":"999","FILE":"3301463","CLASSIFICATION_TYPE":"U","SITE":"AFETR","PERIAPSIS":"546.052"},{"MEAN_ELEMENT_THEORY":"SGP4","LAUNCH_DATE":"2021-03-14","MEAN_ANOMALY":"301.2769","ARG_OF_PERICENTER":"58.8385","EPOCH":"2022-02-15T14:07:24.426624","MEAN_MOTION_DDOT":"0.0000000000000","DECAY_DATE":null,"ECCENTRICITY":"0.00016850","PERIOD":"95.593","COUNTRY_CODE":"US","INCLINATION":"53.0535","SEMIMAJOR_AXIS":"6925.372","FILE":"3301463","CLASSIFICATION_TYPE":"U","SITE":"AFETR","PERIAPSIS":"546.071","OBJECT_NAME":"STARLINK-2324","BSTAR":"0.00001041500000","MEAN_MOTION":"15.06392208","ELEMENT_SET_NO":"999","NORAD_CAT_ID":"47869","TLE_LINE2":"2 47869  53.0535  79.5323 0001685  58.8385 301.2769 15.06392208 52903","TLE_LINE1":"1 47869U 21021K   22046.58847716 -.00000126  00000-0  10415-4 0  9995","RA_OF_ASC_NODE":"79.5323","RCS_SIZE":"LARGE","REF_FRAME":"TEME","EPHEMERIS_TYPE":"0","MEAN_MOTION_DOT":"-0.00000126","REV_AT_EPOCH":"5290","OBJECT_ID":"2021-021K","CENTER_NAME":"EARTH","GP_ID":"196058351","APOAPSIS":"548.404","TIME_SYSTEM":"UTC","OBJECT_TYPE":"PAYLOAD"},{"MEAN_MOTION_DDOT":"0.0000000000000","EPOCH":"2022-02-15T20:55:27.201504","ARG_OF_PERICENTER":"49.3907","MEAN_ANOMALY":"310.7222","LAUNCH_DATE":"2021-03-14","MEAN_ELEMENT_THEORY":"SGP4","SEMIMAJOR_AXIS":"6925.383","COUNTRY_CODE":"US","INCLINATION":"53.0495","DECAY_DATE":null,"PERIOD":"95.593","ECCENTRICITY":"0.00016150","PERIAPSIS":"546.130","SITE":"AFETR","CLASSIFICATION_TYPE":"U","FILE":"3301463","ELEMENT_SET_NO":"999","MEAN_MOTION":"15.06388728","BSTAR":"0.00040495000000","OBJECT_NAME":"STARLINK-2326","RA_OF_ASC_NODE":"103.2492","TLE_LINE1":"1 47870U 21021L   22046.87184261  .00005753  00000-0  40495-3 0  9998","TLE_LINE2":"2 47870  53.0495 103.2492 0001615  49.3907 310.7222 15.06388728 52383","NORAD_CAT_ID":"47870","RCS_SIZE":"MEDIUM","MEAN_MOTION_DOT":"0.00005753","EPHEMERIS_TYPE":"0","REF_FRAME":"TEME","OBJECT_TYPE":"PAYLOAD","TIME_SYSTEM":"UTC","GP_ID":"196059102","CENTER_NAME":"EARTH","APOAPSIS":"548.367","OBJECT_ID":"2021-021L","REV_AT_EPOCH":"5238"},{"OBJECT_TYPE":"PAYLOAD","TIME_SYSTEM":"UTC","CENTER_NAME":"EARTH","GP_ID":"196059353","APOAPSIS":"548.237","OBJECT_ID":"2021-021M","REV_AT_EPOCH":"5282","MEAN_MOTION_DOT":"-0.00001751","EPHEMERIS_TYPE":"0","REF_FRAME":"TEME","RCS_SIZE":"LARGE","TLE_LINE1":"1 47871U 21021M   22046.78384605 -.00001751  00000-0 -98738-4 0  9993","RA_OF_ASC_NODE":"78.6542","TLE_LINE2":"2 47871  53.0544  78.6542 0001400  64.3013 295.8121 15.06382304 52821","NORAD_CAT_ID":"47871","ELEMENT_SET_NO":"999","MEAN_MOTION":"15.06382304","BSTAR":"-0.00009873800000","OBJECT_NAME":"STARLINK-2327","PERIAPSIS":"546.298","SITE":"AFETR","CLASSIFICATION_TYPE":"U","FILE":"3301463","COUNTRY_CODE":"US","SEMIMAJOR_AXIS":"6925.403","INCLINATION":"53.0544","PERIOD":"95.593","DECAY_DATE":null,"ECCENTRICITY":"0.00014000","MEAN_MOTION_DDOT":"0.0000000000000","EPOCH":"2022-02-15T18:48:44.298720","ARG_OF_PERICENTER":"64.3013","MEAN_ANOMALY":"295.8121","LAUNCH_DATE":"2021-03-14","MEAN_ELEMENT_THEORY":"SGP4"},{"OBJECT_ID":"2021-021N","REV_AT_EPOCH":"5340","TIME_SYSTEM":"UTC","OBJECT_TYPE":"PAYLOAD","CENTER_NAME":"EARTH","GP_ID":"196058599","APOAPSIS":"510.666","REF_FRAME":"TEME","MEAN_MOTION_DOT":"0.00111322","EPHEMERIS_TYPE":"0","RCS_SIZE":"LARGE","TLE_LINE2":"2 47872  53.0600  37.4331 0001207  47.9721 312.1376 15.18678626 53400","NORAD_CAT_ID":"47872","RA_OF_ASC_NODE":"37.4331","TLE_LINE1":"1 47872U 21021N   22046.69182595  .00111322  00000-0  52379-2 0  9991","MEAN_MOTION":"15.18678626","OBJECT_NAME":"STARLINK-2328","BSTAR":"0.00523790000000","ELEMENT_SET_NO":"999","CLASSIFICATION_TYPE":"U","FILE":"3301463","PERIAPSIS":"509.004","SITE":"AFETR","ECCENTRICITY":"0.00012070","DECAY_DATE":null,"PERIOD":"94.819","COUNTRY_CODE":"US","SEMIMAJOR_AXIS":"6887.970","INCLINATION":"53.0600","LAUNCH_DATE":"2021-03-14","MEAN_ANOMALY":"312.1376","MEAN_ELEMENT_THEORY":"SGP4","MEAN_MOTION_DDOT":"0.0000000000000","ARG_OF_PERICENTER":"47.9721","EPOCH":"2022-02-15T16:36:13.762080"},{"MEAN_MOTION_DDOT":"0.0000000000000","ARG_OF_PERICENTER":"58.3826","EPOCH":"2022-02-15T13:35:34.073376","LAUNCH_DATE":"2021-03-14","MEAN_ANOMALY":"301.7362","MEAN_ELEMENT_THEORY":"SGP4","COUNTRY_CODE":"US","INCLINATION":"53.0558","SEMIMAJOR_AXIS":"6925.352","PERIOD":"95.592","DECAY_DATE":null,"ECCENTRICITY":"0.00020390","PERIAPSIS":"545.805","SITE":"AFETR","CLASSIFICATION_TYPE":"U","FILE":"3301463","ELEMENT_SET_NO":"999","MEAN_MOTION":"15.06398875","OBJECT_NAME":"STARLINK-2329","BSTAR":"0.00016708000000","TLE_LINE1":"1 47873U 21021P   22046.56636659  .00002208  00000-0  16708-3 0  9992","RA_OF_ASC_NODE":"79.6111","TLE_LINE2":"2 47873  53.0558  79.6111 0002039  58.3826 301.7362 15.06398875 52784","NORAD_CAT_ID":"47873","RCS_SIZE":"LARGE","MEAN_MOTION_DOT":"0.00002208","EPHEMERIS_TYPE":"0","REF_FRAME":"TEME","TIME_SYSTEM":"UTC","OBJECT_TYPE":"PAYLOAD","APOAPSIS":"548.629","GP_ID":"196058851","CENTER_NAME":"EARTH","OBJECT_ID":"2021-021P","REV_AT_EPOCH":"5278"},{"BSTAR":"-0.00012021000000","OBJECT_NAME":"STARLINK-2330","MEAN_MOTION":"15.06401607","ELEMENT_SET_NO":"999","FILE":"3301229","CLASSIFICATION_TYPE":"U","SITE":"AFETR","PERIAPSIS":"546.019","PERIOD":"95.592","DECAY_DATE":null,"ECCENTRICITY":"0.00017180","SEMIMAJOR_AXIS":"6925.344","COUNTRY_CODE":"US","INCLINATION":"53.0543","MEAN_ELEMENT_THEORY":"SGP4","MEAN_ANOMALY":"304.3535","LAUNCH_DATE":"2021-03-14","EPOCH":"2022-02-15T09:01:31.152000","ARG_OF_PERICENTER":"55.7616","MEAN_MOTION_DDOT":"0.0000000000000","REV_AT_EPOCH":"5339","OBJECT_ID":"2021-021Q","CENTER_NAME":"EARTH","GP_ID":"196029255","APOAPSIS":"548.398","OBJECT_TYPE":"PAYLOAD","TIME_SYSTEM":"UTC","REF_FRAME":"TEME","EPHEMERIS_TYPE":"0","MEAN_MOTION_DOT":"-0.00002072","RCS_SIZE":"LARGE","NORAD_CAT_ID":"47874","TLE_LINE2":"2 47874  53.0543  35.4633 0001718  55.7616 304.3535 15.06401607 53396","RA_OF_ASC_NODE":"35.4633","TLE_LINE1":"1 47874U 21021Q   22046.37605500 -.00002072  00000-0 -12021-3 0  9998"}];
